#aV2016  2 17  0  0  0.00000000     288 DD+AD WGS84 FIT  NGA
## 1884 259200.00000000   300.00000000 57435 0.0000000000000
+   30     1  2  3  5  6  7  8  9 10 11 12 13 14 15 16 17 18
+         19 20 21 22 23 24 25 26 27 28 29 30 31  0  0  0  0
+          0  0  0  0  0  0  0  0  0  0  0  0  0  0  0  0  0
+          0  0  0  0  0  0  0  0  0  0  0  0  0  0  0  0  0
+          0  0  0  0  0  0  0  0  0  0  0  0  0  0  0  0  0
++         2  2  2  2  2  2  2  2  2  2  2  2  2  2  2  2  2
++         2  2  2  2  2  2  2  2  2  2  2  2  2  0  0  0  0
++         0  0  0  0  0  0  0  0  0  0  0  0  0  0  0  0  0
++         0  0  0  0  0  0  0  0  0  0  0  0  0  0  0  0  0
++         0  0  0  0  0  0  0  0  0  0  0  0  0  0  0  0  0
%c cc cc ccc ccc cccc cccc cccc cccc ccccc ccccc ccccc ccccc
%c cc cc ccc ccc cccc cccc cccc cccc ccccc ccccc ccccc ccccc
%f  0.0000000  0.000000000  0.00000000000  0.000000000000000
%f  0.0000000  0.000000000  0.00000000000  0.000000000000000
%i    0    0    0    0      0      0      0      0         0
%i    0    0    0    0      0      0      0      0         0
/*      NGA, ST. LOUIS,MO.                                  
/*   EPHEMERIS COMPUTED FROM 2 DAYS OF DATA                 
/*   EPOCHA v2.4 SMOOTHER                                   
/*   G1762 IERS2010 SATAF SATAPC                            
*  2016  2 17 18 15  0.00000000
P  1 -18469.197552  -6866.232958  17838.638427     12.006101                    
V  1 -10332.275515 -20274.015780 -18210.843772      0.010134                    
P  2  14064.906354  22793.881574    958.087423    599.540440                    
V  2  -2914.302763   1057.839360  31052.208615     -0.000604                    
P  3 -17698.712743   3855.063952  19430.804737    -25.801089                    
V  3  10821.683342 -22209.134377  14249.102441     -0.046889                    
P  5   7670.483470  15905.240786 -19853.038659   -145.211192                    
V  5 -13148.249511  21498.928283  12379.448278      0.033974                    
P  6   3526.833394  23008.948582  12804.561339    147.026294                    
V  6 -10284.096757 -12756.194762  25766.108310      0.059773                    
P  7 -11746.020864   9538.307347 -21672.447831    469.195427                    
V  7 -14155.120465 -23977.439858  -3245.570481     -0.016731                    
P  8 -23740.894396  -6399.380125 -10008.968736    -24.255333                    
V  8  12721.830817  -2787.649851 -28211.578415     -0.014442                    
P  9 -22310.387904   8703.155847 -11518.479455     72.680568                    
V  9 -14661.510786  -2164.916904  26797.077951      0.076713                    
P 10  10072.711110 -24218.444184   3999.346219     42.106685                    
V 10   4942.876146  -3079.543080 -31222.617519     -0.048956                    
P 11 -23099.579637  -8284.724656   9676.061990   -632.778254                    
V 11  -7676.080415 -11573.066041 -26668.022575     -0.017531                    
P 12  15846.306150    762.397826  21142.710012    368.726948                    
V 12 -13717.399633  23363.264066   9599.002244      0.025594                    
P 13  17284.347349  12528.868804 -15882.064232   -185.945914                    
V 13 -20000.919659   -158.795461 -22171.092272     -0.024934                    
P 14   7497.956140 -14352.502224  21277.023256      2.504087                    
V 14  26370.888442   2243.818495  -8018.913788     -0.022500                    
P 15  25805.047827   2918.335776  -6507.473107   -297.658971                    
V 15  -7793.669053   3865.552652 -29396.586809     -0.018238                    
P 16  -5470.277108 -16106.785091 -20371.619385    -39.019525                    
V 16  14739.399317 -21087.072382  13144.287568      0.030946                    
P 17  -8646.125074  14068.148895  21087.736959   -200.822712                    
V 17 -26000.251816  -1464.624528 -10026.782359     -0.007003                    
P 18  15904.082293 -19815.569474  -6719.198531    484.541467                    
V 18   -660.588629  10143.780266 -29491.971694      0.039448                    
P 19    306.139925  14905.276146  21755.044786   -524.893872                    
V 19 -28070.024245  -1799.557544   2020.151324     -0.001165                    
P 20  17103.477988   -487.200428 -20483.230283    393.486099                    
V 20  -9654.898521  23928.344406  -8641.949309      0.025924                    
P 21   8914.788009 -13669.374153 -20170.460487   -510.905128                    
V 21  15727.519728  22525.192703  -8306.962223     -0.018457                    
P 22  -5446.294830 -19005.346915  17915.750683    395.591510                    
V 22  12247.247383 -18954.524118 -16759.995757     -0.059514                    
P 23 -26772.664283    951.918608   -626.661926   -160.522403                    
V 23  -1046.818466  -2887.775204  31130.353816     -0.018685                    
P 24  19257.267978   9478.525506  15716.588741    -12.538805                    
V 24   8944.643868  18004.881064 -21558.777085     -0.006960                    
P 25  18144.194035 -12448.308903  14627.746322   -118.756808                    
V 25  -7505.310380  17336.295106  24073.005723     -0.067200                    
P 26   1835.487389 -22869.983780 -13343.126955   -258.406458                    
V 26  10099.482326 -13817.044558  25104.317506     -0.155991                    
P 27 -15816.222185 -11863.832528 -17828.806367     63.743412                    
V 27  22479.251223  -1888.898015 -18557.585402      0.036027                    
P 28 -11785.433147  23446.897309   4533.250352    503.118401                    
V 28  -4246.599025   3135.514569 -31740.481442      0.025574                    
P 29  24340.596108  -5296.978534  -9134.235106    654.411833                    
V 29  11531.392289   2585.393118  29214.004588      0.007636                    
P 30  -4475.787693  19112.073846 -17861.204736     97.486745                    
V 30 -11912.742937 -19426.813286 -17888.806873      0.042579                    
P 31  -4411.484538 -23544.809015  11177.382034    282.230888                    
V 31   8939.013261  11199.124391  27745.061878     -0.016693                    
EOF
